IRIDIUM 33 DEB          
1 39779U 97051AAL 17289.55796444  .00002667  00000-0  91737-3 0  9999
2 39779  86.2975 220.7592 0067940 329.7124 156.6539 14.34417816281550
IRIDIUM 33 DEB          
1 39781U 97051AAN 17286.46525669  .00001779  00000-0  10750-2 0  9996
2 39781  86.3866 353.5393 0291417  48.7052   9.1988 13.87046728306378
IRIDIUM 33 DEB          
1 39782U 97051AAP 17290.56787187  .00003557  00000-0  62544-3 0  9993
2 39782  86.4193 215.9396 0018934  72.3219  49.5574 14.67272123304473
IRIDIUM 33 DEB          
1 39783U 97051AAQ 17286.45208512  .00002212  00000-0  73323-3 0  9991
2 39783  86.1772 173.2265 0070552   5.8799 116.6334 14.36045313291114
IRIDIUM 33 DEB          
1 39785U 97051AAS 17281.58778044  .00019414  00000-0  17480-2 0  9997
2 39785  86.3839 216.7160 0030519 342.9159 139.5934 14.95148244302297
IRIDIUM 33 DEB          
1 39786U 97051AAT 17290.73333946  .00003518  00000-0  65424-3 0  9993
2 39786  86.3744 206.5980 0012101 356.4963  33.7343 14.64851167283838
IRIDIUM 33 DEB          
1 39787U 97051AAU 17290.95254780  .00001621  00000-0  41615-3 0  9995
2 39787  86.2096 162.2767 0041473 209.7640 213.0576 14.49181641178521
IRIDIUM 33 DEB          
1 39790U 97051AAX 17283.34203611  .00002552  00000-0  55930-3 0  9990
2 39790  86.1894 143.6748 0043120 168.3946 191.8267 14.56727532449447
IRIDIUM 33 DEB          
1 39791U 97051AAY 17290.82063951  .00007840  00000-0  25799-2 0  9997
2 39791  86.3613 309.4577 0162082  51.0873  69.8850 14.30884171274046
IRIDIUM 33 DEB          
1 39792U 97051AAZ 17290.38928655  .00002472  00000-0  13251-2 0  9996
2 39792  86.4327 334.3893 0190461 111.8814 250.2738 14.03824407172921
IRIDIUM 33 DEB          
1 39793U 97051ABA 17289.42448460  .00007668  00000-0  51016-3 0  9995
2 39793  86.3626 178.8911 0005274 256.2703 103.7945 15.06996784663304
IRIDIUM 33 DEB          
1 40992U 97051ABE 17289.00841499  .00002059  00000-0  44216-3 0  9994
2 40992  86.3109 185.6112 0025377 108.6236 313.1597 14.57950961298934
IRIDIUM 33 DEB          
1 40993U 97051ABF 17290.27208046  .00004101  00000-0  81723-3 0  9995
2 40993  86.3798 215.8979 0025215  47.9884 104.2173 14.61613353277179
IRIDIUM 33 DEB          
1 40994U 97051ABG 17287.52477523  .00003646  00000-0  66163-3 0  9992
2 40994  86.3963 206.2374 0011732  79.6039 280.6496 14.65960003162014
IRIDIUM 33 DEB          
1 40995U 97051ABH 17288.60584581  .00001691  00000-0  47592-3 0  9999
2 40995  86.3939 236.0441 0037677 217.2920 267.8269 14.44908137276703
IRIDIUM 33 DEB          
1 40996U 97051ABJ 17290.79349507  .00000984  00000-0  26858-3 0  9996
2 40996  86.3782 218.5439 0014341  26.4397   3.0046 14.46356836191796
IRIDIUM 33 DEB          
1 40997U 97051ABK 17287.03212108  .00016261  00000-0  17746-2 0  9996
2 40997  86.3639 194.6574 0007539 246.2920 113.7514 14.87815274331456
IRIDIUM 33 DEB          
1 40998U 97051ABL 17289.59250628  .00000399  00000-0  12777-3 0  9994
2 40998  86.3859 232.4008 0007258 132.8122 227.3953 14.37018424642659
